GOES 14                 
1 35491U 09033A   26117.10739284 -.00000059  00000+0  00000+0 0  9991
2 35491   1.5602  83.6249 0001770 314.4330  26.1159  1.00116727  6075
EWS-G2 (GOES 15)        
1 36411U 10008A   26117.05025186  .00000013  00000+0  00000+0 0  9990
2 36411   1.1430  83.7697 0003987  23.6732 188.9494  1.00272544 59121
GOES 16                 
1 41866U 16071A   26117.19874389 -.00000101  00000+0  00000+0 0  9997
2 41866   0.2138  85.2983 0001485 251.7192 205.0053  1.00271254 34599
GOES 17                 
1 43226U 18022A   26117.20253022 -.00000192  00000+0  00000+0 0  9994
2 43226   0.8088  86.3949 0000660 278.4125 193.8075  1.00271983 29918
GOES 18                 
1 51850U 22021A   26116.96599441  .00000000  00000+0  00000+0 0  9997
2 51850   0.0104  83.6605 0000669   3.3583 338.7000  1.00271663  6077
GOES 19                 
1 60133U 24119A   26117.19141821 -.00000259  00000+0  00000+0 0  9999
2 60133   0.0270  67.8750 0000550  17.0151 124.0038  1.00272942  6452
